COSMOS 2433 (720)       
1 32275U 07052A   26067.02526017 -.00000063  00000+0  00000+0 0  9995
2 32275  65.6327 319.3396 0001879 270.7798  89.2555  2.13104055142900
COSMOS 2432 (719)       
1 32276U 07052B   26067.06507008 -.00000063  00000+0  00000+0 0  9999
2 32276  65.6487 319.4640 0010448 331.4750   3.3188  2.13103224142924
COSMOS 2434 (721)       
1 32393U 07065A   26066.86676229  .00000031  00000+0  00000+0 0  9996
2 32393  64.3182 195.3303 0003644  69.6840  59.0501  2.13101248141615
COSMOS 2436 (723)       
1 32395U 07065C   26067.20789171  .00000032  00000+0  00000+0 0  9999
2 32395  64.3265 195.3899 0017487   6.8786 156.2818  2.13100151141579
COSMOS 2456 (730)       
1 36111U 09070A   26067.06764296  .00000000  00000+0  00000+0 0  9997
2 36111  64.9514  74.4202 0006357 305.9648 134.4502  2.13103638126272
COSMOS 2457 (733)       
1 36112U 09070B   26066.33254902 -.00000003  00000+0  00000+0 0  9999
2 36112  64.9366  74.2912 0002134 196.6857 168.1357  2.13100930126263
COSMOS 2460 (732)       
1 36402U 10007C   26063.07006766 -.00000051  00000+0  00000+0 0  9997
2 36402  65.4801 318.0258 0001792  14.3302   8.4003  2.13106010124499
COSMOS 2476 (744)       
1 37867U 11064A   26067.13170104  .00000002  00000+0  00000+0 0  9991
2 37867  65.2117  76.2818 0025212 241.5254 156.3791  2.13103741111616
COSMOS 2477 (745)       
1 37868U 11064B   26066.40834462  .00000000  00000+0  00000+0 0  9993
2 37868  65.2178  76.3849 0022238 242.9634 140.6535  2.13102850111590
COSMOS 2475 (743)       
1 37869U 11064C   26065.66634538  .00000000  00000+0  00000+0 0  9993
2 37869  65.2241  76.4304 0028031 254.4778 235.4579  2.13101515111580
COSMOS 2485 (747)       
1 39155U 13019A   26067.01934566  .00000002  00000+0  00000+0 0  9992
2 39155  65.3621  76.9986 0025503 236.9934 122.7925  2.13103045100125
COSMOS 2492 (754)       
1 39620U 14012A   26066.97821458 -.00000060  00000+0  00000+0 0  9997
2 39620  65.3555 317.3777 0013131 326.4923  33.4825  2.13103275 93083
COSMOS 2500 (755)       
1 40001U 14032A   26064.33376667 -.00000055  00000+0  00000+0 0  9993
2 40001  65.2924 317.2230 0005183 201.3822 158.6566  2.13105772 91249
COSMOS 2501 (702K)      
1 40315U 14075A   26060.84023701 -.00000015  00000+0  00000+0 0  9994
2 40315  63.6170 194.0851 0020735 205.7160 154.1408  2.13101099 87569
COSMOS 2514 (751)       
1 41330U 16008A   26066.92505344 -.00000059  00000+0  00000+0 0  9991
2 41330  65.0805 316.4843 0009080 208.4789 151.5294  2.13102716 78466
COSMOS 2522 (752)       
1 42939U 17055A   26064.88589677  .00000019  00000+0  00000+0 0  9999
2 42939  64.0788 195.3973 0007310 227.5424 132.3669  2.13101691 65775
COSMOS 2527 (756)       
1 43508U 18053A   26064.84716644  .00000005  00000+0  00000+0 0  9998
2 43508  65.5190  77.3533 0009601 245.4642 114.4730  2.13102075 60073
COSMOS 2529 (757)       
1 43687U 18086A   26065.88263705  .00000028  00000+0  00000+0 0  9997
2 43687  64.2953 196.0459 0008275 253.2948 106.5898  2.13102014 57102
COSMOS 2534 (758)       
1 44299U 19030A   26063.82267120  .00000008  00000+0  00000+0 0  9992
2 44299  64.3687 196.1275 0009607 279.9650  74.0554  2.13102294 52696
COSMOS 2544 (759)       
1 44850U 19088A   26067.13810674  .00000003  00000+0  00000+0 0  9999
2 44850  65.5084  77.1019 0015780 259.7585 100.0946  2.13101888 48563
COSMOS 2545 (760)       
1 45358U 20018A   26064.04887093 -.00000054  00000+0  00000+0 0  9991
2 45358  64.4172 316.0811 0008063 250.0323 109.9417  2.13102426 46443
COSMOS 2547 (705K)      
1 46805U 20075A   26065.64518105  .00000026  00000+0  00000+0 0  9992
2 46805  64.5994 195.8945 0006874 230.4824 129.4314  2.13100263 41727
COSMOS 2557 (706K)      
1 52984U 22075A   26066.27951789 -.00000063  00000+0  00000+0 0  9990
2 52984  64.3574 318.0770 0011419 283.6500  76.2804  2.13101888 28543
COSMOS 2559 (707K)      
1 54031U 22130A   26067.03742272 -.00000063  00000+0  00000+0 0  9997
2 54031  64.3297 318.1375 0010616 180.9908 179.0635  2.13101347 26532
COSMOS 2564 (761)       
1 54377U 22161A   26066.88093590  .00000032  00000+0  00000+0 0  9993
2 54377  64.7414 196.0715 0009510 210.3972 149.5278  2.13101955 25473
COSMOS 2569 (703K)      
1 57517U 23114A   26063.60906547  .00000011  00000+0  00000+0 0  9990
2 57517  65.2420  76.1460 0012898 291.6250  68.2783  2.13103963 20030
COSMOS 2584 (704K)      
1 63130U 25042A   26059.74188024  .00000039  00000+0  00000+0 0  9992
2 63130  65.0213  76.4877 0007822 236.2440 123.7373  2.13103267  7739
COSMOS 2596 (708K)      
1 65590U 25206B   26067.16990101 -.00000063  00000+0  00000+0 0  9996
2 65590  64.6921 318.5044 0012820 316.0706  99.9669  2.13100452  3768
